[{"OBJECT_NAME":"OBJECT AE","OBJECT_ID":"2025-313AE","EPOCH":"2026-03-09T22:39:11.546496","MEAN_MOTION":15.21274921,"ECCENTRICITY":0.00138698,"INCLINATION":97.3973,"RA_OF_ASC_NODE":145.1623,"ARG_OF_PERICENTER":1.9486,"MEAN_ANOMALY":358.1801,"EPHEMERIS_TYPE":0,"CLASSIFICATION_TYPE":"U","NORAD_CAT_ID":67276,"ELEMENT_SET_NO":999,"REV_AT_EPOCH":1085,"BSTAR":0.00043089391,"MEAN_MOTION_DOT":9.592e-5,"MEAN_MOTION_DDOT":0},{"OBJECT_NAME":"SL-8 R\/B","OBJECT_ID":"1981-003B","EPOCH":"2026-03-09T16:04:15.381408","MEAN_MOTION":15.1097362,"ECCENTRICITY":0.02621852,"INCLINATION":82.9386,"RA_OF_ASC_NODE":290.0424,"ARG_OF_PERICENTER":178.7086,"MEAN_ANOMALY":181.4887,"EPHEMERIS_TYPE":0,"CLASSIFICATION_TYPE":"U","NORAD_CAT_ID":12139,"ELEMENT_SET_NO":999,"REV_AT_EPOCH":31467,"BSTAR":0.00054115758,"MEAN_MOTION_DOT":0.00021105,"MEAN_MOTION_DDOT":0}]
